{
  "type": "FeatureCollection",
  "features": [
    {
      "type": "Feature",
      "properties": {
        "norad_id": 47052,
        "name": "COSMOS 2251 DEB",
        "group": "cosmos-2251-debris",
        "lat": 17.191670433720933,
        "lon": 136.69693857938026,
        "alt_km": 799.270442146726,
        "timestamp": "2025-12-22T20:43:46.246577+00:00",
        "meta_object_name": "COSMOS 2251 DEB",
        "meta_object_id": "1993-036BXG",
        "meta_epoch": "2025-12-13T17:42:34.547904",
        "meta_mean_motion": 14.35482778,
        "meta_eccentricity": 0.00580984,
        "meta_inclination": 74.0478,
        "meta_ra_of_asc_node": 338.4955,
        "meta_arg_of_pericenter": 52.4094,
        "meta_mean_anomaly": 127.807,
        "meta_ephemeris_type": 0,
        "meta_classification_type": "U",
        "meta_norad_cat_id": 47052,
        "meta_element_set_no": 999,
        "meta_rev_at_epoch": 61803,
        "meta_bstar": 0.00037288685,
        "meta_mean_motion_dot": 1.067e-05,
        "meta_mean_motion_ddot": 0,
        "tle_line1": "1 47052U 93036BXG 25347.73789986  .00001067  00000+0  37289-3 0  9992",
        "tle_line2": "2 47052  74.0478 338.4955 0058098  52.4094 127.8070 14.35482778618033"
      },
      "geometry": {
        "type": "Point",
        "coordinates": [
          136.69693857938026,
          17.191670433720933
        ]
      }
    },
    {
      "type": "Feature",
      "properties": {
        "norad_id": 47053,
        "name": "COSMOS 2251 DEB",
        "group": "cosmos-2251-debris",
        "lat": 50.38977470213272,
        "lon": -102.12270583770587,
        "alt_km": 752.5229819186252,
        "timestamp": "2025-12-22T20:43:46.246587+00:00",
        "meta_object_name": "COSMOS 2251 DEB",
        "meta_object_id": "1993-036BXH",
        "meta_epoch": "2025-12-21T23:22:14.227392",
        "meta_mean_motion": 13.59701409,
        "meta_eccentricity": 0.03775476,
        "meta_inclination": 74.0593,
        "meta_ra_of_asc_node": 239.1144,
        "meta_arg_of_pericenter": 50.5889,
        "meta_mean_anomaly": 327.7768,
        "meta_ephemeris_type": 0,
        "meta_classification_type": "U",
        "meta_norad_cat_id": 47053,
        "meta_element_set_no": 999,
        "meta_rev_at_epoch": 29014,
        "meta_bstar": 0.0013674764,
        "meta_mean_motion_dot": 1.606e-05,
        "meta_mean_motion_ddot": 0,
        "tle_line1": "1 47053U 93036BXH 25355.97377578  .00001606  00000+0  13675-2 0  9999",
        "tle_line2": "2 47053  74.0593 239.1144 0377547  50.5889 327.7768 13.59701409290146"
      },
      "geometry": {
        "type": "Point",
        "coordinates": [
          -102.12270583770587,
          50.38977470213272
        ]
      }
    },
    {
      "type": "Feature",
      "properties": {
        "norad_id": 47059,
        "name": "COSMOS 2251 DEB",
        "group": "cosmos-2251-debris",
        "lat": 71.32787270085831,
        "lon": -23.882525357415624,
        "alt_km": 515.458143238131,
        "timestamp": "2025-12-22T20:43:46.246597+00:00",
        "meta_object_name": "COSMOS 2251 DEB",
        "meta_object_id": "1993-036BXP",
        "meta_epoch": "2025-12-16T01:10:48.054720",
        "meta_mean_motion": 15.13144812,
        "meta_eccentricity": 0.00128667,
        "meta_inclination": 73.98,
        "meta_ra_of_asc_node": 228.534,
        "meta_arg_of_pericenter": 42.2566,
        "meta_mean_anomaly": 26.5019,
        "meta_ephemeris_type": 0,
        "meta_classification_type": "U",
        "meta_norad_cat_id": 47059,
        "meta_element_set_no": 999,
        "meta_rev_at_epoch": 8355,
        "meta_bstar": 0.0018804977,
        "meta_mean_motion_dot": 0.00033522,
        "meta_mean_motion_ddot": 0,
        "tle_line1": "1 47059U 93036BXP 25350.04916730  .00033522  00000+0  18805-2 0  9999",
        "tle_line2": "2 47059  73.9800 228.5340 0012866  42.2566  26.5019 15.13144812 83550"
      },
      "geometry": {
        "type": "Point",
        "coordinates": [
          -23.882525357415624,
          71.32787270085831
        ]
      }
    },
    {
      "type": "Feature",
      "properties": {
        "norad_id": 47062,
        "name": "COSMOS 2251 DEB",
        "group": "cosmos-2251-debris",
        "lat": 29.901884454868565,
        "lon": 70.92834907037916,
        "alt_km": 1202.6360249487916,
        "timestamp": "2025-12-22T20:43:46.246607+00:00",
        "meta_object_name": "COSMOS 2251 DEB",
        "meta_object_id": "1993-036BXS",
        "meta_epoch": "2025-12-13T23:56:30.676992",
        "meta_mean_motion": 13.71952164,
        "meta_eccentricity": 0.03233862,
        "meta_inclination": 74.0831,
        "meta_ra_of_asc_node": 76.1003,
        "meta_arg_of_pericenter": 201.6929,
        "meta_mean_anomaly": 337.1469,
        "meta_ephemeris_type": 0,
        "meta_classification_type": "U",
        "meta_norad_cat_id": 47062,
        "meta_element_set_no": 999,
        "meta_rev_at_epoch": 55619,
        "meta_bstar": 0.0017198262,
        "meta_mean_motion_dot": 2.244e-05,
        "meta_mean_motion_ddot": 0,
        "tle_line1": "1 47062U 93036BXS 25347.99757728  .00002244  00000+0  17198-2 0  9994",
        "tle_line2": "2 47062  74.0831  76.1003 0323386 201.6929 337.1469 13.71952164556193"
      },
      "geometry": {
        "type": "Point",
        "coordinates": [
          70.92834907037916,
          29.901884454868565
        ]
      }
    },
    {
      "type": "Feature",
      "properties": {
        "norad_id": 47068,
        "name": "COSMOS 2251 DEB",
        "group": "cosmos-2251-debris",
        "lat": -46.703683245612794,
        "lon": 22.05007094958633,
        "alt_km": 711.8968374911619,
        "timestamp": "2025-12-22T20:43:46.246617+00:00",
        "meta_object_name": "COSMOS 2251 DEB",
        "meta_object_id": "1993-036BXY",
        "meta_epoch": "2025-12-21T18:53:38.325696",
        "meta_mean_motion": 14.5320428,
        "meta_eccentricity": 0.00182478,
        "meta_inclination": 74.0228,
        "meta_ra_of_asc_node": 186.3806,
        "meta_arg_of_pericenter": 272.8072,
        "meta_mean_anomaly": 87.1001,
        "meta_ephemeris_type": 0,
        "meta_classification_type": "U",
        "meta_norad_cat_id": 47068,
        "meta_element_set_no": 999,
        "meta_rev_at_epoch": 61888,
        "meta_bstar": 0.00062182415,
        "meta_mean_motion_dot": 2.555e-05,
        "meta_mean_motion_ddot": 0,
        "tle_line1": "1 47068U 93036BXY 25355.78724914  .00002555  00000+0  62182-3 0  9996",
        "tle_line2": "2 47068  74.0228 186.3806 0018247 272.8072  87.1001 14.53204280618889"
      },
      "geometry": {
        "type": "Point",
        "coordinates": [
          22.05007094958633,
          -46.703683245612794
        ]
      }
    },
    {
      "type": "Feature",
      "properties": {
        "norad_id": 47073,
        "name": "COSMOS 2251 DEB",
        "group": "cosmos-2251-debris",
        "lat": 63.22872897837518,
        "lon": -141.3215934607017,
        "alt_km": 973.8330288408151,
        "timestamp": "2025-12-22T20:43:46.246649+00:00",
        "meta_object_name": "COSMOS 2251 DEB",
        "meta_object_id": "1993-036BYD",
        "meta_epoch": "2025-12-20T05:09:22.277088",
        "meta_mean_motion": 14.04735867,
        "meta_eccentricity": 0.0161533,
        "meta_inclination": 74.0811,
        "meta_ra_of_asc_node": 188.8357,
        "meta_arg_of_pericenter": 225.3344,
        "meta_mean_anomaly": 133.4535,
        "meta_ephemeris_type": 0,
        "meta_classification_type": "U",
        "meta_norad_cat_id": 47073,
        "meta_element_set_no": 999,
        "meta_rev_at_epoch": 60466,
        "meta_bstar": 0.00045488,
        "meta_mean_motion_dot": 7.94e-06,
        "meta_mean_motion_ddot": 0,
        "tle_line1": "1 47073U 93036BYD 25354.21484117  .00000794  00000+0  45488-3 0  9990",
        "tle_line2": "2 47073  74.0811 188.8357 0161533 225.3344 133.4535 14.04735867604667"
      },
      "geometry": {
        "type": "Point",
        "coordinates": [
          -141.3215934607017,
          63.22872897837518
        ]
      }
    },
    {
      "type": "Feature",
      "properties": {
        "norad_id": 47074,
        "name": "COSMOS 2251 DEB",
        "group": "cosmos-2251-debris",
        "lat": -73.69815513673099,
        "lon": -172.61172902180772,
        "alt_km": 711.279269221187,
        "timestamp": "2025-12-22T20:43:46.246660+00:00",
        "meta_object_name": "COSMOS 2251 DEB",
        "meta_object_id": "1993-036BYE",
        "meta_epoch": "2025-12-16T13:32:26.153376",
        "meta_mean_motion": 14.35650419,
        "meta_eccentricity": 0.01449048,
        "meta_inclination": 74.0928,
        "meta_ra_of_asc_node": 301.7157,
        "meta_arg_of_pericenter": 328.8455,
        "meta_mean_anomaly": 153.2821,
        "meta_ephemeris_type": 0,
        "meta_classification_type": "U",
        "meta_norad_cat_id": 47074,
        "meta_element_set_no": 999,
        "meta_rev_at_epoch": 2737,
        "meta_bstar": 0.0011411657,
        "meta_mean_motion_dot": 3.683e-05,
        "meta_mean_motion_ddot": 0,
        "tle_line1": "1 47074U 93036BYE 25350.56419159  .00003683  00000+0  11412-2 0  9998",
        "tle_line2": "2 47074  74.0928 301.7157 0144904 328.8455 153.2821 14.35650419 27374"
      },
      "geometry": {
        "type": "Point",
        "coordinates": [
          -172.61172902180772,
          -73.69815513673099
        ]
      }
    }
  ]
}